{
  "type": "FeatureCollection",
  "features": [
    {
      "type": "Feature",
      "properties": {
        "norad_id": 24946,
        "name": "IRIDIUM 33",
        "group": "iridium-33-debris",
        "lat": 11.714420901320219,
        "lon": 69.51218187969202,
        "alt_km": 781.1252245658061,
        "timestamp": "2025-12-11T10:53:16.273638+00:00",
        "meta_object_name": "IRIDIUM 33",
        "meta_object_id": "1997-051C",
        "meta_epoch": "2025-12-11T04:08:21.383808",
        "meta_mean_motion": 14.35035588,
        "meta_eccentricity": 0.0006852,
        "meta_inclination": 86.3869,
        "meta_ra_of_asc_node": 68.8795,
        "meta_arg_of_pericenter": 206.017,
        "meta_mean_anomaly": 154.0683,
        "meta_ephemeris_type": 0,
        "meta_classification_type": "U",
        "meta_norad_cat_id": 24946,
        "meta_element_set_no": 999,
        "meta_rev_at_epoch": 47812,
        "meta_bstar": 0.00018191,
        "meta_mean_motion_dot": 5.38e-06,
        "meta_mean_motion_ddot": 0,
        "tle_line1": "1 24946U 97051C   25345.17246972  .00000538  00000+0  18191-3 0  9992",
        "tle_line2": "2 24946  86.3869  68.8795 0006852 206.0170 154.0683 14.35035588478128"
      },
      "geometry": {
        "type": "Point",
        "coordinates": [
          69.51218187969202,
          11.714420901320219
        ]
      }
    },
    {
      "type": "Feature",
      "properties": {
        "norad_id": 33773,
        "name": "IRIDIUM 33 DEB",
        "group": "iridium-33-debris",
        "lat": -68.83078507812891,
        "lon": 51.78173438715049,
        "alt_km": 761.9448104661687,
        "timestamp": "2025-12-11T10:53:16.273684+00:00",
        "meta_object_name": "IRIDIUM 33 DEB",
        "meta_object_id": "1997-051L",
        "meta_epoch": "2025-12-11T04:33:09.150336",
        "meta_mean_motion": 14.43251154,
        "meta_eccentricity": 0.0012335,
        "meta_inclination": 86.4012,
        "meta_ra_of_asc_node": 61.2464,
        "meta_arg_of_pericenter": 150.9805,
        "meta_mean_anomaly": 209.2084,
        "meta_ephemeris_type": 0,
        "meta_classification_type": "U",
        "meta_norad_cat_id": 33773,
        "meta_element_set_no": 999,
        "meta_rev_at_epoch": 88325,
        "meta_bstar": 0.00045507,
        "meta_mean_motion_dot": 1.552e-05,
        "meta_mean_motion_ddot": 0,
        "tle_line1": "1 33773U 97051L   25345.18968924  .00001552  00000+0  45507-3 0  9997",
        "tle_line2": "2 33773  86.4012  61.2464 0012335 150.9805 209.2084 14.43251154883252"
      },
      "geometry": {
        "type": "Point",
        "coordinates": [
          51.78173438715049,
          -68.83078507812891
        ]
      }
    },
    {
      "type": "Feature",
      "properties": {
        "norad_id": 33775,
        "name": "IRIDIUM 33 DEB",
        "group": "iridium-33-debris",
        "lat": 22.33986136047867,
        "lon": 51.6000916215324,
        "alt_km": 760.6802631597411,
        "timestamp": "2025-12-11T10:53:16.273700+00:00",
        "meta_object_name": "IRIDIUM 33 DEB",
        "meta_object_id": "1997-051N",
        "meta_epoch": "2025-12-11T04:23:46.796064",
        "meta_mean_motion": 14.41463004,
        "meta_eccentricity": 0.0014136,
        "meta_inclination": 86.3638,
        "meta_ra_of_asc_node": 50.2181,
        "meta_arg_of_pericenter": 159.3513,
        "meta_mean_anomaly": 260.5544,
        "meta_ephemeris_type": 0,
        "meta_classification_type": "U",
        "meta_norad_cat_id": 33775,
        "meta_element_set_no": 999,
        "meta_rev_at_epoch": 88118,
        "meta_bstar": 0.00048545,
        "meta_mean_motion_dot": 1.596e-05,
        "meta_mean_motion_ddot": 0,
        "tle_line1": "1 33775U 97051N   25345.18318051  .00001596  00000+0  48545-3 0  9992",
        "tle_line2": "2 33775  86.3638  50.2181 0014136 159.3513 260.5544 14.41463004881189"
      },
      "geometry": {
        "type": "Point",
        "coordinates": [
          51.6000916215324,
          22.33986136047867
        ]
      }
    },
    {
      "type": "Feature",
      "properties": {
        "norad_id": 33776,
        "name": "IRIDIUM 33 DEB",
        "group": "iridium-33-debris",
        "lat": -85.56551463589464,
        "lon": -44.49692361666153,
        "alt_km": 768.7859621305397,
        "timestamp": "2025-12-11T10:53:16.273714+00:00",
        "meta_object_name": "IRIDIUM 33 DEB",
        "meta_object_id": "1997-051P",
        "meta_epoch": "2025-12-11T04:55:52.773888",
        "meta_mean_motion": 14.38230599,
        "meta_eccentricity": 0.0014171,
        "meta_inclination": 86.4038,
        "meta_ra_of_asc_node": 81.4202,
        "meta_arg_of_pericenter": 195.5045,
        "meta_mean_anomaly": 227.5273,
        "meta_ephemeris_type": 0,
        "meta_classification_type": "U",
        "meta_norad_cat_id": 33776,
        "meta_element_set_no": 999,
        "meta_rev_at_epoch": 88060,
        "meta_bstar": 0.00046315,
        "meta_mean_motion_dot": 1.427e-05,
        "meta_mean_motion_ddot": 0,
        "tle_line1": "1 33776U 97051P   25345.20547192  .00001427  00000+0  46315-3 0  9992",
        "tle_line2": "2 33776  86.4038  81.4202 0014171 195.5045 227.5273 14.38230599880601"
      },
      "geometry": {
        "type": "Point",
        "coordinates": [
          -44.49692361666153,
          -85.56551463589464
        ]
      }
    },
    {
      "type": "Feature",
      "properties": {
        "norad_id": 33777,
        "name": "IRIDIUM 33 DEB",
        "group": "iridium-33-debris",
        "lat": -25.390979296525327,
        "lon": 34.04004692664991,
        "alt_km": 712.4768601499882,
        "timestamp": "2025-12-11T10:53:16.273728+00:00",
        "meta_object_name": "IRIDIUM 33 DEB",
        "meta_object_id": "1997-051Q",
        "meta_epoch": "2025-12-11T04:24:18.065088",
        "meta_mean_motion": 14.55595173,
        "meta_eccentricity": 0.0005102,
        "meta_inclination": 86.3785,
        "meta_ra_of_asc_node": 35.8801,
        "meta_arg_of_pericenter": 256.1395,
        "meta_mean_anomaly": 103.9245,
        "meta_ephemeris_type": 0,
        "meta_classification_type": "U",
        "meta_norad_cat_id": 33777,
        "meta_element_set_no": 999,
        "meta_rev_at_epoch": 88511,
        "meta_bstar": 0.0013559,
        "meta_mean_motion_dot": 5.934e-05,
        "meta_mean_motion_ddot": 0,
        "tle_line1": "1 33777U 97051Q   25345.18354242  .00005934  00000+0  13559-2 0  9992",
        "tle_line2": "2 33777  86.3785  35.8801 0005102 256.1395 103.9245 14.55595173885112"
      },
      "geometry": {
        "type": "Point",
        "coordinates": [
          34.04004692664991,
          -25.390979296525327
        ]
      }
    },
    {
      "type": "Feature",
      "properties": {
        "norad_id": 33850,
        "name": "IRIDIUM 33 DEB",
        "group": "iridium-33-debris",
        "lat": 0.21882183829514448,
        "lon": 30.746854166125097,
        "alt_km": 762.7459306305718,
        "timestamp": "2025-12-11T10:53:16.273741+00:00",
        "meta_object_name": "IRIDIUM 33 DEB",
        "meta_object_id": "1997-051T",
        "meta_epoch": "2025-12-11T04:30:10.253088",
        "meta_mean_motion": 14.42141315,
        "meta_eccentricity": 0.0012049,
        "meta_inclination": 86.3419,
        "meta_ra_of_asc_node": 30.8472,
        "meta_arg_of_pericenter": 165.8293,
        "meta_mean_anomaly": 254.2129,
        "meta_ephemeris_type": 0,
        "meta_classification_type": "U",
        "meta_norad_cat_id": 33850,
        "meta_element_set_no": 999,
        "meta_rev_at_epoch": 88130,
        "meta_bstar": 0.00045596,
        "meta_mean_motion_dot": 1.52e-05,
        "meta_mean_motion_ddot": 0,
        "tle_line1": "1 33850U 97051T   25345.18761867  .00001520  00000+0  45596-3 0  9993",
        "tle_line2": "2 33850  86.3419  30.8472 0012049 165.8293 254.2129 14.42141315881307"
      },
      "geometry": {
        "type": "Point",
        "coordinates": [
          30.746854166125097,
          0.21882183829514448
        ]
      }
    },
    {
      "type": "Feature",
      "properties": {
        "norad_id": 33853,
        "name": "IRIDIUM 33 DEB",
        "group": "iridium-33-debris",
        "lat": -41.86012808845002,
        "lon": 173.9695948523927,
        "alt_km": 760.1191050186044,
        "timestamp": "2025-12-11T10:53:16.273754+00:00",
        "meta_object_name": "IRIDIUM 33 DEB",
        "meta_object_id": "1997-051W",
        "meta_epoch": "2025-12-10T23:36:33.217920",
        "meta_mean_motion": 13.99044488,
        "meta_eccentricity": 0.020703,
        "meta_inclination": 86.0001,
        "meta_ra_of_asc_node": 350.5812,
        "meta_arg_of_pericenter": 241.2627,
        "meta_mean_anomaly": 135.8914,
        "meta_ephemeris_type": 0,
        "meta_classification_type": "U",
        "meta_norad_cat_id": 33853,
        "meta_element_set_no": 999,
        "meta_rev_at_epoch": 85321,
        "meta_bstar": 0.0027418,
        "meta_mean_motion_dot": 4.78e-05,
        "meta_mean_motion_ddot": 0,
        "tle_line1": "1 33853U 97051W   25344.98371780  .00004780  00000+0  27418-2 0  9997",
        "tle_line2": "2 33853  86.0001 350.5812 0207030 241.2627 135.8914 13.99044488853219"
      },
      "geometry": {
        "type": "Point",
        "coordinates": [
          173.9695948523927,
          -41.86012808845002
        ]
      }
    }
  ]
}